start=new Date('2022-10-10T00:00:00.000Z').valueOf();
sats=[{"EPOCH":"2022-10-09T12:27:21.564576","TLE_LINE2":"2 52003  53.2185 217.8818 0001333  73.2679 286.8459 15.08841578 34157","MEAN_MOTION_DOT":"0.00001592","LAUNCH_DATE":"2022-03-09","TIME_SYSTEM":"UTC","FILE":"3597264","NORAD_CAT_ID":"52003","ECCENTRICITY":"0.00013330","CLASSIFICATION_TYPE":"U","ELEMENT_SET_NO":"999","MEAN_ANOMALY":"286.8459","MEAN_ELEMENT_THEORY":"SGP4","MEAN_MOTION":"15.08841578","GP_ID":"214523254","APOAPSIS":"540.663","CENTER_NAME":"EARTH","MEAN_MOTION_DDOT":"0.0000000000000","RA_OF_ASC_NODE":"217.8818","PERIAPSIS":"538.818","OBJECT_NAME":"STARLINK-3654","TLE_LINE1":"1 52003U 22025AZ  22282.51899959  .00001592  00000-0  11807-3 0  9999","SEMIMAJOR_AXIS":"6917.876","ARG_OF_PERICENTER":"73.2679","COUNTRY_CODE":"US","OBJECT_ID":"2022-025AZ","DECAY_DATE":null,"REV_AT_EPOCH":"3415","INCLINATION":"53.2185","OBJECT_TYPE":"PAYLOAD","RCS_SIZE":"LARGE","REF_FRAME":"TEME","EPHEMERIS_TYPE":"0","BSTAR":"0.00011807000000","PERIOD":"95.437","SITE":"AFETR"},{"TLE_LINE2":"2 52088  53.2005 204.3856 0001399  94.0060 266.1122 15.77576395 33493","MEAN_MOTION_DOT":"0.00000324","LAUNCH_DATE":"2022-03-19","FILE":"3597861","ECCENTRICITY":"0.00013990","NORAD_CAT_ID":"52088","TIME_SYSTEM":"UTC","EPOCH":"2022-10-09T00:34:53.599008","MEAN_ANOMALY":"266.1122","MEAN_ELEMENT_THEORY":"SGP4","CLASSIFICATION_TYPE":"U","ELEMENT_SET_NO":"999","APOAPSIS":"338.251","CENTER_NAME":"EARTH","MEAN_MOTION_DDOT":"0.0000000000000","MEAN_MOTION":"15.77576395","GP_ID":"214562613","PERIAPSIS":"336.372","RA_OF_ASC_NODE":"204.3856","ARG_OF_PERICENTER":"94.0060","TLE_LINE1":"1 52088U 22029A   22282.02423147  .00000324  00000-0  58110-5 0  9996","SEMIMAJOR_AXIS":"6715.447","OBJECT_NAME":"STARLINK-3537","DECAY_DATE":null,"REV_AT_EPOCH":"3349","COUNTRY_CODE":"US","OBJECT_ID":"2022-029A","REF_FRAME":"TEME","EPHEMERIS_TYPE":"0","BSTAR":"0.00000581100000","INCLINATION":"53.2005","OBJECT_TYPE":"PAYLOAD","RCS_SIZE":"LARGE","SITE":"AFETR","PERIOD":"91.279"},{"FILE":"3598879","NORAD_CAT_ID":"52089","TIME_SYSTEM":"UTC","ECCENTRICITY":"0.00019930","LAUNCH_DATE":"2022-03-19","MEAN_MOTION_DOT":"0.00002155","TLE_LINE2":"2 52089  53.2172 286.9637 0001993  46.5201 313.5956 15.08849127 32403","EPOCH":"2022-10-09T17:20:08.448864","MEAN_ELEMENT_THEORY":"SGP4","MEAN_ANOMALY":"313.5956","ELEMENT_SET_NO":"999","CLASSIFICATION_TYPE":"U","MEAN_MOTION_DDOT":"0.0000000000000","CENTER_NAME":"EARTH","APOAPSIS":"541.096","GP_ID":"214604597","MEAN_MOTION":"15.08849127","PERIAPSIS":"538.339","RA_OF_ASC_NODE":"286.9637","ARG_OF_PERICENTER":"46.5201","TLE_LINE1":"1 52089U 22029B   22282.72232001  .00002155  00000-0  15345-3 0  9996","SEMIMAJOR_AXIS":"6917.852","OBJECT_NAME":"STARLINK-3722","REV_AT_EPOCH":"3240","DECAY_DATE":null,"OBJECT_ID":"2022-029B","COUNTRY_CODE":"US","BSTAR":"0.00015345000000","EPHEMERIS_TYPE":"0","REF_FRAME":"TEME","RCS_SIZE":"LARGE","OBJECT_TYPE":"PAYLOAD","INCLINATION":"53.2172","SITE":"AFETR","PERIOD":"95.437"},{"OBJECT_ID":"2022-029C","COUNTRY_CODE":"US","REV_AT_EPOCH":"3240","DECAY_DATE":null,"TLE_LINE1":"1 52090U 22029C   22282.71128509  .00002041  00000-0  14632-3 0  9996","ARG_OF_PERICENTER":"50.8058","SEMIMAJOR_AXIS":"6917.884","OBJECT_NAME":"STARLINK-3712","PERIOD":"95.438","SITE":"AFETR","RCS_SIZE":"LARGE","OBJECT_TYPE":"PAYLOAD","INCLINATION":"53.2156","BSTAR":"0.00014632000000","EPHEMERIS_TYPE":"0","REF_FRAME":"TEME","ELEMENT_SET_NO":"999","CLASSIFICATION_TYPE":"U","MEAN_ELEMENT_THEORY":"SGP4","MEAN_ANOMALY":"309.3106","EPOCH":"2022-10-09T17:04:15.031776","NORAD_CAT_ID":"52090","FILE":"3598879","TIME_SYSTEM":"UTC","ECCENTRICITY":"0.00019380","LAUNCH_DATE":"2022-03-19","MEAN_MOTION_DOT":"0.00002041","TLE_LINE2":"2 52090  53.2156 287.0173 0001938  50.8058 309.3106 15.08838925 32405","RA_OF_ASC_NODE":"287.0173","PERIAPSIS":"538.408","GP_ID":"214604851","MEAN_MOTION":"15.08838925","MEAN_MOTION_DDOT":"0.0000000000000","CENTER_NAME":"EARTH","APOAPSIS":"541.089"},{"PERIOD":"95.438","SITE":"AFETR","RCS_SIZE":"LARGE","INCLINATION":"53.2170","OBJECT_TYPE":"PAYLOAD","EPHEMERIS_TYPE":"0","BSTAR":"0.00009394200000","REF_FRAME":"TEME","OBJECT_ID":"2022-029D","COUNTRY_CODE":"US","REV_AT_EPOCH":"3240","DECAY_DATE":null,"ARG_OF_PERICENTER":"28.8999","TLE_LINE1":"1 52091U 22029D   22282.71864058  .00001207  00000-0  93942-4 0  9998","SEMIMAJOR_AXIS":"6917.881","OBJECT_NAME":"STARLINK-3713","RA_OF_ASC_NODE":"286.9877","PERIAPSIS":"537.951","MEAN_MOTION":"15.08839869","GP_ID":"214603602","CENTER_NAME":"EARTH","MEAN_MOTION_DDOT":"0.0000000000000","APOAPSIS":"541.541","CLASSIFICATION_TYPE":"U","ELEMENT_SET_NO":"999","MEAN_ANOMALY":"331.2137","MEAN_ELEMENT_THEORY":"SGP4","EPOCH":"2022-10-09T17:14:50.546112","FILE":"3598879","NORAD_CAT_ID":"52091","ECCENTRICITY":"0.00025950","TIME_SYSTEM":"UTC","TLE_LINE2":"2 52091  53.2170 286.9877 0002595  28.8999 331.2137 15.08839869 32406","LAUNCH_DATE":"2022-03-19","MEAN_MOTION_DOT":"0.00001207"},{"MEAN_ANOMALY":"318.0700","MEAN_ELEMENT_THEORY":"SGP4","CLASSIFICATION_TYPE":"U","ELEMENT_SET_NO":"999","TLE_LINE2":"2 52092  53.2183 287.0094 0001965  42.0442 318.0700 15.08829507 32402","MEAN_MOTION_DOT":"-0.00001580","LAUNCH_DATE":"2022-03-19","FILE":"3598879","ECCENTRICITY":"0.00019650","NORAD_CAT_ID":"52092","TIME_SYSTEM":"UTC","EPOCH":"2022-10-09T17:09:34.131168","PERIAPSIS":"538.418","RA_OF_ASC_NODE":"287.0094","APOAPSIS":"541.137","CENTER_NAME":"EARTH","MEAN_MOTION_DDOT":"0.0000000000000","MEAN_MOTION":"15.08829507","GP_ID":"214604348","DECAY_DATE":null,"REV_AT_EPOCH":"3240","COUNTRY_CODE":"US","OBJECT_ID":"2022-029E","SEMIMAJOR_AXIS":"6917.912","TLE_LINE1":"1 52092U 22029E   22282.71497837 -.00001580  00000-0 -81181-4 0  9994","ARG_OF_PERICENTER":"42.0442","OBJECT_NAME":"STARLINK-3716","SITE":"AFETR","PERIOD":"95.438","REF_FRAME":"TEME","EPHEMERIS_TYPE":"0","BSTAR":"-0.00008118100000","INCLINATION":"53.2183","OBJECT_TYPE":"PAYLOAD","RCS_SIZE":"LARGE"},{"MEAN_ANOMALY":"308.5775","MEAN_ELEMENT_THEORY":"SGP4","CLASSIFICATION_TYPE":"U","ELEMENT_SET_NO":"999","FILE":"3597861","ECCENTRICITY":"0.00017260","NORAD_CAT_ID":"52093","TIME_SYSTEM":"UTC","TLE_LINE2":"2 52093  53.2163 288.8518 0001726  51.5372 308.5775 15.08838217 32340","LAUNCH_DATE":"2022-03-19","MEAN_MOTION_DOT":"-0.00000902","EPOCH":"2022-10-09T07:21:20.188224","PERIAPSIS":"538.557","RA_OF_ASC_NODE":"288.8518","CENTER_NAME":"EARTH","MEAN_MOTION_DDOT":"0.0000000000000","APOAPSIS":"540.945","MEAN_MOTION":"15.08838217","GP_ID":"214561362","REV_AT_EPOCH":"3234","DECAY_DATE":null,"OBJECT_ID":"2022-029F","COUNTRY_CODE":"US","OBJECT_NAME":"STARLINK-3673","TLE_LINE1":"1 52093U 22029F   22282.30648366 -.00000902  00000-0 -38555-4 0  9999","SEMIMAJOR_AXIS":"6917.886","ARG_OF_PERICENTER":"51.5372","SITE":"AFETR","PERIOD":"95.438","EPHEMERIS_TYPE":"0","BSTAR":"-0.00003855500000","REF_FRAME":"TEME","RCS_SIZE":"LARGE","INCLINATION":"53.2163","OBJECT_TYPE":"PAYLOAD"},{"SITE":"AFETR","PERIOD":"95.437","REF_FRAME":"TEME","EPHEMERIS_TYPE":"0","BSTAR":"0.00007559100000","INCLINATION":"53.2179","OBJECT_TYPE":"PAYLOAD","RCS_SIZE":"LARGE","DECAY_DATE":null,"REV_AT_EPOCH":"3240","COUNTRY_CODE":"US","OBJECT_ID":"2022-029G","TLE_LINE1":"1 52094U 22029G   22282.70759918  .00000915  00000-0  75591-4 0  9993","OBJECT_NAME":"STARLINK-3714","SEMIMAJOR_AXIS":"6917.859","ARG_OF_PERICENTER":"44.2154","PERIAPSIS":"538.432","RA_OF_ASC_NODE":"287.0418","APOAPSIS":"541.017","CENTER_NAME":"EARTH","MEAN_MOTION_DDOT":"0.0000000000000","MEAN_MOTION":"15.08846842","GP_ID":"214605351","MEAN_ANOMALY":"315.8987","MEAN_ELEMENT_THEORY":"SGP4","CLASSIFICATION_TYPE":"U","ELEMENT_SET_NO":"999","TLE_LINE2":"2 52094  53.2179 287.0418 0001868  44.2154 315.8987 15.08846842 32408","LAUNCH_DATE":"2022-03-19","MEAN_MOTION_DOT":"0.00000915","FILE":"3598879","ECCENTRICITY":"0.00018680","NORAD_CAT_ID":"52094","TIME_SYSTEM":"UTC","EPOCH":"2022-10-09T16:58:56.569152"},{"EPOCH":"2022-10-09T10:21:28.822176","NORAD_CAT_ID":"52095","FILE":"3597114","ECCENTRICITY":"0.00017350","TIME_SYSTEM":"UTC","TLE_LINE2":"2 52095  53.2150 288.2890 0001735  43.9055 316.2075 15.08860548 32361","LAUNCH_DATE":"2022-03-19","MEAN_MOTION_DOT":"0.00001814","CLASSIFICATION_TYPE":"U","ELEMENT_SET_NO":"999","MEAN_ANOMALY":"316.2075","MEAN_ELEMENT_THEORY":"SGP4","MEAN_MOTION":"15.08860548","GP_ID":"214519701","CENTER_NAME":"EARTH","MEAN_MOTION_DDOT":"0.0000000000000","APOAPSIS":"540.883","RA_OF_ASC_NODE":"288.2890","PERIAPSIS":"538.482","TLE_LINE1":"1 52095U 22029H   22282.43158359  .00001814  00000-0  13195-3 0  9996","SEMIMAJOR_AXIS":"6917.818","ARG_OF_PERICENTER":"43.9055","OBJECT_NAME":"STARLINK-3701","OBJECT_ID":"2022-029H","COUNTRY_CODE":"US","REV_AT_EPOCH":"3236","DECAY_DATE":null,"RCS_SIZE":"LARGE","INCLINATION":"53.2150","OBJECT_TYPE":"PAYLOAD","EPHEMERIS_TYPE":"0","BSTAR":"0.00013195000000","REF_FRAME":"TEME","PERIOD":"95.436","SITE":"AFETR"},{"RA_OF_ASC_NODE":"278.9634","PERIAPSIS":"538.371","MEAN_MOTION":"15.08845347","GP_ID":"214562614","APOAPSIS":"541.087","CENTER_NAME":"EARTH","MEAN_MOTION_DDOT":"0.0000000000000","CLASSIFICATION_TYPE":"U","ELEMENT_SET_NO":"999","MEAN_ANOMALY":"324.8970","MEAN_ELEMENT_THEORY":"SGP4","EPOCH":"2022-10-09T06:40:15.586752","TLE_LINE2":"2 52096  53.2169 278.9634 0001963  35.2151 324.8970 15.08845347 32468","LAUNCH_DATE":"2022-03-19","MEAN_MOTION_DOT":"0.00000919","NORAD_CAT_ID":"52096","FILE":"3597861","TIME_SYSTEM":"UTC","ECCENTRICITY":"0.00019630","PERIOD":"95.437","SITE":"AFETR","INCLINATION":"53.2169","OBJECT_TYPE":"PAYLOAD","RCS_SIZE":"LARGE","REF_FRAME":"TEME","EPHEMERIS_TYPE":"0","BSTAR":"0.00007584400000","COUNTRY_CODE":"US","OBJECT_ID":"2022-029J","DECAY_DATE":null,"REV_AT_EPOCH":"3246","TLE_LINE1":"1 52096U 22029J   22282.27795818  .00000919  00000-0  75844-4 0  9991","SEMIMAJOR_AXIS":"6917.864","OBJECT_NAME":"STARLINK-3717","ARG_OF_PERICENTER":"35.2151"}];
